[{"OBJECT_NAME":"STARLINK-36212","OBJECT_ID":"2025-304AA","EPOCH":"2026-03-09T16:41:27.859776","MEAN_MOTION":15.00195424,"ECCENTRICITY":0.00049779,"INCLINATION":70.0014,"RA_OF_ASC_NODE":174.5126,"ARG_OF_PERICENTER":278.3638,"MEAN_ANOMALY":81.6957,"EPHEMERIS_TYPE":0,"CLASSIFICATION_TYPE":"U","NORAD_CAT_ID":67216,"ELEMENT_SET_NO":999,"REV_AT_EPOCH":1388,"BSTAR":0.057619822,"MEAN_MOTION_DOT":0.00772353,"MEAN_MOTION_DDOT":0},{"OBJECT_NAME":"SL-3 DEB","OBJECT_ID":"1983-075D","EPOCH":"2026-03-09T23:36:44.953632","MEAN_MOTION":15.09588045,"ECCENTRICITY":0.00266029,"INCLINATION":97.8881,"RA_OF_ASC_NODE":62.5591,"ARG_OF_PERICENTER":309.2805,"MEAN_ANOMALY":113.3567,"EPHEMERIS_TYPE":0,"CLASSIFICATION_TYPE":"U","NORAD_CAT_ID":14229,"ELEMENT_SET_NO":999,"REV_AT_EPOCH":31646,"BSTAR":0.00023866318,"MEAN_MOTION_DOT":3.795e-5,"MEAN_MOTION_DDOT":0}]
